CCSDS_OMM_VERS = 2.0
CREATION_DATE  = 
ORIGINATOR     = 

OBJECT_NAME    = SL-8 R/B
OBJECT_ID      = 1985-006B
CENTER_NAME    = EARTH
REF_FRAME      = TEME
TIME_SYSTEM    = UTC
MEAN_ELEMENT_THEORY = SGP/SGP4

EPOCH          = 2026-01-22T20:47:48.414048
MEAN_MOTION    = 14.37753983
ECCENTRICITY   = .00197725
INCLINATION    = 74.0470
RA_OF_ASC_NODE = 345.4623
ARG_OF_PERICENTER = 271.2182
MEAN_ANOMALY   = 110.1700

EPHEMERIS_TYPE = 0
CLASSIFICATION_TYPE = U
NORAD_CAT_ID   = 15483
ELEMENT_SET_NO = 999
REV_AT_EPOCH   = 14744
BSTAR          = .199064E-3
MEAN_MOTION_DOT = .574E-5
MEAN_MOTION_DDOT = 0

CCSDS_OMM_VERS = 2.0
CREATION_DATE  = 
ORIGINATOR     = 

OBJECT_NAME    = SL-12 R/B(2)
OBJECT_ID      = 1985-042D
CENTER_NAME    = EARTH
REF_FRAME      = TEME
TIME_SYSTEM    = UTC
MEAN_ELEMENT_THEORY = SGP/SGP4

EPOCH          = 2026-01-22T11:12:19.185408
MEAN_MOTION    = 14.21965886
ECCENTRICITY   = .00359934
INCLINATION    = 71.1067
RA_OF_ASC_NODE = 185.3796
ARG_OF_PERICENTER = 201.0017
MEAN_ANOMALY   = 169.4298

EPHEMERIS_TYPE = 0
CLASSIFICATION_TYPE = U
NORAD_CAT_ID   = 15772
ELEMENT_SET_NO = 999
REV_AT_EPOCH   = 10782
BSTAR          = .13311225E-3
MEAN_MOTION_DOT = .248E-5
MEAN_MOTION_DDOT = 0

CCSDS_OMM_VERS = 2.0
CREATION_DATE  = 
ORIGINATOR     = 

OBJECT_NAME    = SL-14 R/B
OBJECT_ID      = 1985-069B
CENTER_NAME    = EARTH
REF_FRAME      = TEME
TIME_SYSTEM    = UTC
MEAN_ELEMENT_THEORY = SGP/SGP4

EPOCH          = 2026-01-22T11:56:42.048096
MEAN_MOTION    = 14.86375164
ECCENTRICITY   = .00184638
INCLINATION    = 82.5247
RA_OF_ASC_NODE = 68.3811
ARG_OF_PERICENTER = 350.3053
MEAN_ANOMALY   = 9.7804

EPHEMERIS_TYPE = 0
CLASSIFICATION_TYPE = U
NORAD_CAT_ID   = 15945
ELEMENT_SET_NO = 999
REV_AT_EPOCH   = 16597
BSTAR          = .91957017E-4
MEAN_MOTION_DOT = .837E-5
MEAN_MOTION_DDOT = 0

CCSDS_OMM_VERS = 2.0
CREATION_DATE  = 
ORIGINATOR     = 

OBJECT_NAME    = SL-16 R/B
OBJECT_ID      = 1985-097B
CENTER_NAME    = EARTH
REF_FRAME      = TEME
TIME_SYSTEM    = UTC
MEAN_ELEMENT_THEORY = SGP/SGP4

EPOCH          = 2026-01-22T14:03:53.595072
MEAN_MOTION    = 14.16590931
ECCENTRICITY   = .00089645
INCLINATION    = 71.0004
RA_OF_ASC_NODE = 237.6120
ARG_OF_PERICENTER = 314.0921
MEAN_ANOMALY   = 66.6990

EPHEMERIS_TYPE = 0
CLASSIFICATION_TYPE = U
NORAD_CAT_ID   = 16182
ELEMENT_SET_NO = 999
REV_AT_EPOCH   = 8070
BSTAR          = -.46937193E-4
MEAN_MOTION_DOT = -.142E-5
MEAN_MOTION_DDOT = 0

CCSDS_OMM_VERS = 2.0
CREATION_DATE  = 
ORIGINATOR     = 

OBJECT_NAME    = SL-14 R/B
OBJECT_ID      = 1986-006B
CENTER_NAME    = EARTH
REF_FRAME      = TEME
TIME_SYSTEM    = UTC
MEAN_ELEMENT_THEORY = SGP/SGP4

EPOCH          = 2026-01-22T18:08:36.752352
MEAN_MOTION    = 14.86738299
ECCENTRICITY   = .00781416
INCLINATION    = 82.5288
RA_OF_ASC_NODE = 302.9637
ARG_OF_PERICENTER = 65.4309
MEAN_ANOMALY   = 295.5025

EPHEMERIS_TYPE = 0
CLASSIFICATION_TYPE = U
NORAD_CAT_ID   = 16496
ELEMENT_SET_NO = 999
REV_AT_EPOCH   = 14238
BSTAR          = .1413487E-3
MEAN_MOTION_DOT = .1357E-4
MEAN_MOTION_DDOT = 0

CCSDS_OMM_VERS = 2.0
CREATION_DATE  = 
ORIGINATOR     = 

OBJECT_NAME    = COSMOS 1743
OBJECT_ID      = 1986-034A
CENTER_NAME    = EARTH
REF_FRAME      = TEME
TIME_SYSTEM    = UTC
MEAN_ELEMENT_THEORY = SGP/SGP4

EPOCH          = 2026-01-22T16:26:51.171072
MEAN_MOTION    = 15.55058652
ECCENTRICITY   = .00054212
INCLINATION    = 82.5350
RA_OF_ASC_NODE = 121.9774
ARG_OF_PERICENTER = 103.6171
MEAN_ANOMALY   = 256.5687

EPHEMERIS_TYPE = 0
CLASSIFICATION_TYPE = U
NORAD_CAT_ID   = 16719
ELEMENT_SET_NO = 999
REV_AT_EPOCH   = 17309
BSTAR          = .56621946E-3
MEAN_MOTION_DOT = .38205E-3
MEAN_MOTION_DDOT = 0

CCSDS_OMM_VERS = 2.0
CREATION_DATE  = 
ORIGINATOR     = 

OBJECT_NAME    = SL-14 R/B
OBJECT_ID      = 1986-046B
CENTER_NAME    = EARTH
REF_FRAME      = TEME
TIME_SYSTEM    = UTC
MEAN_ELEMENT_THEORY = SGP/SGP4

EPOCH          = 2026-01-22T17:39:40.202208
MEAN_MOTION    = 14.85539069
ECCENTRICITY   = .00236495
INCLINATION    = 82.4835
RA_OF_ASC_NODE = 123.6001
ARG_OF_PERICENTER = 23.4803
MEAN_ANOMALY   = 336.7487

EPHEMERIS_TYPE = 0
CLASSIFICATION_TYPE = U
NORAD_CAT_ID   = 16792
ELEMENT_SET_NO = 999
REV_AT_EPOCH   = 11958
BSTAR          = .10111505E-3
MEAN_MOTION_DOT = .902E-5
MEAN_MOTION_DDOT = 0

CCSDS_OMM_VERS = 2.0
CREATION_DATE  = 
ORIGINATOR     = 

OBJECT_NAME    = SL-14 R/B
OBJECT_ID      = 1986-055B
CENTER_NAME    = EARTH
REF_FRAME      = TEME
TIME_SYSTEM    = UTC
MEAN_ELEMENT_THEORY = SGP/SGP4

EPOCH          = 2026-01-22T15:44:50.411328
MEAN_MOTION    = 14.85583984
ECCENTRICITY   = .00201942
INCLINATION    = 82.5214
RA_OF_ASC_NODE = 169.9247
ARG_OF_PERICENTER = 122.2488
MEAN_ANOMALY   = 248.6269

EPHEMERIS_TYPE = 0
CLASSIFICATION_TYPE = U
NORAD_CAT_ID   = 16882
ELEMENT_SET_NO = 999
REV_AT_EPOCH   = 11253
BSTAR          = .11546203E-3
MEAN_MOTION_DOT = .1026E-4
MEAN_MOTION_DDOT = 0

CCSDS_OMM_VERS = 2.0
CREATION_DATE  = 
ORIGINATOR     = 

OBJECT_NAME    = AJISAI (EGS)
OBJECT_ID      = 1986-061A
CENTER_NAME    = EARTH
REF_FRAME      = TEME
TIME_SYSTEM    = UTC
MEAN_ELEMENT_THEORY = SGP/SGP4

EPOCH          = 2026-01-22T23:02:35.066976
MEAN_MOTION    = 12.44515165
ECCENTRICITY   = .00112722
INCLINATION    = 50.0065
RA_OF_ASC_NODE = 233.9678
ARG_OF_PERICENTER = 169.5795
MEAN_ANOMALY   = 347.5919

EPHEMERIS_TYPE = 0
CLASSIFICATION_TYPE = U
NORAD_CAT_ID   = 16908
ELEMENT_SET_NO = 999
REV_AT_EPOCH   = 46230
BSTAR          = -.176484E-5
MEAN_MOTION_DOT = -.98E-6
MEAN_MOTION_DDOT = 0

CCSDS_OMM_VERS = 2.0
CREATION_DATE  = 
ORIGINATOR     = 

OBJECT_NAME    = COSMOS 1812
OBJECT_ID      = 1987-003A
CENTER_NAME    = EARTH
REF_FRAME      = TEME
TIME_SYSTEM    = UTC
MEAN_ELEMENT_THEORY = SGP/SGP4

EPOCH          = 2026-01-22T13:34:45.551136
MEAN_MOTION    = 15.86811140
ECCENTRICITY   = .00015876
INCLINATION    = 82.4817
RA_OF_ASC_NODE = 247.4858
ARG_OF_PERICENTER = 38.7083
MEAN_ANOMALY   = 321.4301

EPHEMERIS_TYPE = 0
CLASSIFICATION_TYPE = U
NORAD_CAT_ID   = 17295
ELEMENT_SET_NO = 999
REV_AT_EPOCH   = 13710
BSTAR          = .72148677E-3
MEAN_MOTION_DOT = .187125E-2
MEAN_MOTION_DDOT = 0

CCSDS_OMM_VERS = 2.0
CREATION_DATE  = 
ORIGINATOR     = 

OBJECT_NAME    = SL-14 R/B
OBJECT_ID      = 1987-024B
CENTER_NAME    = EARTH
REF_FRAME      = TEME
TIME_SYSTEM    = UTC
MEAN_ELEMENT_THEORY = SGP/SGP4

EPOCH          = 2026-01-22T17:14:53.714400
MEAN_MOTION    = 14.86079726
ECCENTRICITY   = .0019475
INCLINATION    = 82.5303
RA_OF_ASC_NODE = 135.9615
ARG_OF_PERICENTER = 55.8867
MEAN_ANOMALY   = 304.4194

EPHEMERIS_TYPE = 0
CLASSIFICATION_TYPE = U
NORAD_CAT_ID   = 17567
ELEMENT_SET_NO = 999
REV_AT_EPOCH   = 8130
BSTAR          = .10642374E-3
MEAN_MOTION_DOT = .959E-5
MEAN_MOTION_DDOT = 0

CCSDS_OMM_VERS = 2.0
CREATION_DATE  = 
ORIGINATOR     = 

OBJECT_NAME    = COSMOS 1833
OBJECT_ID      = 1987-027A
CENTER_NAME    = EARTH
REF_FRAME      = TEME
TIME_SYSTEM    = UTC
MEAN_ELEMENT_THEORY = SGP/SGP4

EPOCH          = 2026-01-22T13:32:01.672800
MEAN_MOTION    = 14.13049274
ECCENTRICITY   = .00244338
INCLINATION    = 70.9194
RA_OF_ASC_NODE = 62.9639
ARG_OF_PERICENTER = 275.7393
MEAN_ANOMALY   = 84.0943

EPHEMERIS_TYPE = 0
CLASSIFICATION_TYPE = U
NORAD_CAT_ID   = 17589
ELEMENT_SET_NO = 999
REV_AT_EPOCH   = 380
BSTAR          = .17130723E-3
MEAN_MOTION_DOT = .273E-5
MEAN_MOTION_DDOT = 0

CCSDS_OMM_VERS = 2.0
CREATION_DATE  = 
ORIGINATOR     = 

OBJECT_NAME    = SL-16 R/B
OBJECT_ID      = 1987-027B
CENTER_NAME    = EARTH
REF_FRAME      = TEME
TIME_SYSTEM    = UTC
MEAN_ELEMENT_THEORY = SGP/SGP4

EPOCH          = 2026-01-22T22:52:59.874528
MEAN_MOTION    = 14.17159518
ECCENTRICITY   = .00060831
INCLINATION    = 71.0032
RA_OF_ASC_NODE = 12.8699
ARG_OF_PERICENTER = 214.3728
MEAN_ANOMALY   = 145.7003

EPHEMERIS_TYPE = 0
CLASSIFICATION_TYPE = U
NORAD_CAT_ID   = 17590
ELEMENT_SET_NO = 999
REV_AT_EPOCH   = 886
BSTAR          = -.5705021E-5
MEAN_MOTION_DOT = -.59E-6
MEAN_MOTION_DDOT = 0

CCSDS_OMM_VERS = 2.0
CREATION_DATE  = 
ORIGINATOR     = 

OBJECT_NAME    = SL-14 R/B
OBJECT_ID      = 1987-038B
CENTER_NAME    = EARTH
REF_FRAME      = TEME
TIME_SYSTEM    = UTC
MEAN_ELEMENT_THEORY = SGP/SGP4

EPOCH          = 2026-01-22T19:47:32.561952
MEAN_MOTION    = 14.85313377
ECCENTRICITY   = .00182618
INCLINATION    = 82.5033
RA_OF_ASC_NODE = 340.0011
ARG_OF_PERICENTER = 320.2488
MEAN_ANOMALY   = 39.7389

EPHEMERIS_TYPE = 0
CLASSIFICATION_TYPE = U
NORAD_CAT_ID   = 17912
ELEMENT_SET_NO = 999
REV_AT_EPOCH   = 7242
BSTAR          = .1134901E-3
MEAN_MOTION_DOT = .1001E-4
MEAN_MOTION_DDOT = 0

CCSDS_OMM_VERS = 2.0
CREATION_DATE  = 
ORIGINATOR     = 

OBJECT_NAME    = COSMOS 1844
OBJECT_ID      = 1987-041A
CENTER_NAME    = EARTH
REF_FRAME      = TEME
TIME_SYSTEM    = UTC
MEAN_ELEMENT_THEORY = SGP/SGP4

EPOCH          = 2026-01-22T17:14:33.602208
MEAN_MOTION    = 14.14535438
ECCENTRICITY   = .00283339
INCLINATION    = 70.8992
RA_OF_ASC_NODE = 131.1428
ARG_OF_PERICENTER = 91.6439
MEAN_ANOMALY   = 268.7929

EPHEMERIS_TYPE = 0
CLASSIFICATION_TYPE = U
NORAD_CAT_ID   = 17973
ELEMENT_SET_NO = 999
REV_AT_EPOCH   = 99708
BSTAR          = -.6522224E-4
MEAN_MOTION_DOT = -.174E-5
MEAN_MOTION_DDOT = 0

